SKYKRAFT-1A             
1 55054U 23001AX  26068.71064616  .00008177  00000+0  30069-3 0  9991
2 55054  97.3349 127.6290 0011277 121.5092 238.7251 15.28083228176529
STARLINK-35511          
1 66344U 25253AB  26068.45995577  .00032209  00000+0  11745-2 0  9998
2 66344  43.0017 213.4255 0001451 243.6652 116.4050 15.27591717 20218
